OBJECT_NAME,OBJECT_ID,EPOCH,MEAN_MOTION,ECCENTRICITY,INCLINATION,RA_OF_ASC_NODE,ARG_OF_PERICENTER,MEAN_ANOMALY,EPHEMERIS_TYPE,CLASSIFICATION_TYPE,NORAD_CAT_ID,ELEMENT_SET_NO,REV_AT_EPOCH,BSTAR,MEAN_MOTION_DOT,MEAN_MOTION_DDOT
LEMUR-1,2014-033AL,2026-06-04T23:09:34.408512,14.85194863,.00496454,97.7869,306.0433,117.6152,243.0117,0,U,40044,999,64365,.36224288E-3,.3119E-4,0
LEMUR-2-GREENBERG,2017-042N,2026-06-05T06:11:46.422816,15.30938220,.00096407,97.3817,336.9417,54.5583,305.6556,0,U,42837,999,48656,.54231068E-3,.16174E-3,0
LEMUR-2-ANDIS,2017-042P,2026-06-04T01:48:21.746880,15.34295092,.0009265,97.3677,335.9049,58.5132,301.7015,0,U,42838,999,48644,.70843E-3,.23518E-3,0
LEMUR-2-MONSON,2017-042Q,2026-06-05T07:21:45.314208,15.27680545,.00073108,97.4080,336.9797,46.5583,313.6263,0,U,42839,999,48635,.54553235E-3,.14708E-3,0
LEMUR-2-FURIAUS,2017-042R,2026-06-05T05:50:36.324672,15.29837678,.00085984,97.3770,334.9095,105.6214,254.5976,0,U,42840,999,48638,.60420681E-3,.17423E-3,0
LEMUR-2-PETERG,2017-042S,2026-06-05T00:43:21.284544,15.33378035,.00042195,97.3992,341.0456,40.9368,319.2190,0,U,42841,999,48657,.86294006E-3,.27833E-3,0
LEMUR-2-DEMBITZ,2017-042T,2026-06-05T06:19:53.894208,15.29918753,.00076625,97.3826,337.9440,67.1388,293.0661,0,U,42842,999,48652,.54033033E-3,.15605E-3,0
LEMUR-2-ZACHARY,2017-042W,2026-06-05T07:25:31.355616,15.49196554,.00036883,97.3611,347.7021,73.6193,286.5463,0,U,42845,999,48736,.76032582E-3,.41499E-3,0
LEMUR-2-AMANDA-SVANTE,2021-034B,2026-06-05T00:40:48.727200,15.33541007,.00008915,97.5760,234.0002,268.8607,91.2533,0,U,48269,999,27919,.10583863E-2,.3435E-3,0
LEMUR-2-SPECIAL-K,2021-034F,2026-06-04T17:27:01.451232,15.60998083,.0002667,97.5656,241.7174,238.8592,121.2404,0,U,48273,999,27974,.15811E-2,.13455E-2,0
LEMUR-2-EMBRIONOVIS,2023-084AQ,2026-06-05T05:25:06.069216,15.37236806,.00085928,97.6283,299.9699,6.0201,354.1144,0,U,56970,999,16584,.35181213E-3,.12766E-3,0
LEMUR-2-DEVERILL-M-T,2023-100F,2026-06-05T01:55:32.273760,15.39125818,.00074312,99.4476,191.3491,87.0917,273.1172,0,U,57391,999,15938,.62278944E-3,.24105E-3,0
LEMUR-2-BASS,2023-174D,2026-06-05T00:25:04.444320,15.42678080,.00067596,97.3845,240.5640,202.6267,157.4684,0,U,58259,999,14348,.44782881E-3,.19476E-3,0
LEMUR-2-JK0903EM1407,2023-174CJ,2026-06-04T05:50:17.937888,15.50993821,.0005884,97.3910,245.3579,155.2357,204.9178,0,U,58336,999,14372,.4905583E-3,.28456E-3,0
LEMUR-2-MJR092620,2023-174CN,2026-06-04T17:17:41.078976,15.44399087,.0006869,97.3973,245.5256,154.4028,205.7562,0,U,58340,999,14372,.47661E-3,.21979E-3,0
LEMUR-2-NIMBUS2000,2024-022A,2026-06-04T03:30:58.692096,15.39561973,.00096515,97.4115,4.9878,156.4051,203.7639,0,U,58899,999,13026,.51721231E-3,.20317E-3,0
LEMUR-2-VALHALLA,2024-022B,2026-06-04T03:21:43.243776,15.39258151,.00102938,97.4114,4.9787,152.8565,207.3220,0,U,58900,999,13026,.46693738E-3,.18151E-3,0
LEMUR-2-OBA-NI-JESU,2024-022D,2026-06-05T02:00:28.392480,16.03061802,.00042686,97.3756,20.2810,178.9250,181.2040,0,U,58902,999,13138,.12641233E-2,.761516E-2,.28398477E-3
LEMUR-2-CAEL,2024-022E,2026-06-05T01:41:02.607648,15.40559647,.0008994,97.4098,6.8344,133.4762,226.7233,0,U,58903,999,13047,.41560425E-3,.16843E-3,0
LEMUR-2-JOHNNYTRUONG,2024-043BA,2026-06-04T23:06:10.520928,15.59530461,.00043596,97.5377,306.9181,213.6895,146.4085,0,U,59146,999,12613,.5230785E-3,.41553E-3,0
LEMUR-2-TOMATOKECHUP,2024-149D,2026-06-04T22:10:50.492928,15.35767551,.0000297,97.3797,237.9426,225.0802,135.0417,0,U,60471,999,10028,.36408E-3,.12593E-3,0
LEMUR-2-STELLA,2024-149BT,2026-06-04T04:10:32.423232,15.11514040,.0001851,97.6733,237.5749,101.9080,258.2357,0,U,60533,999,9853,.78866E-3,.13309E-3,0
LEMUR-2-MARHISYAM,2024-149BW,2026-06-04T17:53:43.960416,15.10994084,.00030866,97.6879,238.5856,140.1867,219.9590,0,U,60536,999,9860,.74142346E-3,.12328E-3,0
LEMUR-2-AHMED-ASRAR,2024-149DN,2026-06-05T01:21:02.546208,15.12426387,.00026591,97.6998,240.9433,70.4526,289.6991,0,U,60576,999,9873,.88520212E-3,.15334E-3,0
LEMUR-2-LLOYD,2024-149DP,2026-06-05T00:59:02.503680,15.08994533,.00041717,97.6743,237.1657,173.8105,186.3176,0,U,60577,999,9856,.84567271E-3,.13321E-3,0
LEMUR-2-SQUIRRELCOMM,2024-149DQ,2026-06-04T16:57:45.440352,15.07003704,.00067343,97.6704,236.6582,95.7677,264.4318,0,U,60578,999,9852,.54578397E-3,.8118E-4,0
LEMUR-2-SIERRINI,2024-149DR,2026-06-05T00:45:22.621248,15.10681655,.00047396,97.6843,238.5729,202.8711,157.2308,0,U,60579,999,9862,.82505889E-3,.13612E-3,0
LEMUR-2-WILSON,2025-009CP,2026-06-04T04:17:01.113504,14.95111131,.00049525,97.7030,233.8721,85.9541,274.2245,0,U,62694,999,7541,.29758658E-3,.3207E-4,0
LEMUR-2-STAR-FOX,2025-009CR,2026-06-04T16:55:06.301056,15.02303576,.0002534,97.6939,237.4054,146.1713,213.9673,0,U,62696,999,7568,.71577968E-3,.9402E-4,0
